MALLIGYONG-1            
1 58400U 23179A   24181.61468914  .00008843  00000+0  39902-3 0  9992
2 58400  97.4026  68.2527 0003348 122.4417 237.7143 15.21227642 33618
